[{"OBJECT_NAME":"ICEYE-X40","OBJECT_ID":"2024-149CK","EPOCH":"2026-03-09T18:13:16.348800","MEAN_MOTION":14.97556326,"ECCENTRICITY":0.00059832,"INCLINATION":97.6865,"RA_OF_ASC_NODE":146.8579,"ARG_OF_PERICENTER":65.2061,"MEAN_ANOMALY":294.9783,"EPHEMERIS_TYPE":0,"CLASSIFICATION_TYPE":"U","NORAD_CAT_ID":60549,"ELEMENT_SET_NO":999,"REV_AT_EPOCH":8519,"BSTAR":0.00028351559,"MEAN_MOTION_DOT":3.253e-5,"MEAN_MOTION_DDOT":0},{"OBJECT_NAME":"STARLINK-36263","OBJECT_ID":"2025-304L","EPOCH":"2026-03-09T07:05:18.023136","MEAN_MOTION":14.9831908,"ECCENTRICITY":0.00035419,"INCLINATION":70.0012,"RA_OF_ASC_NODE":175.5312,"ARG_OF_PERICENTER":267.9987,"MEAN_ANOMALY":92.0766,"EPHEMERIS_TYPE":0,"CLASSIFICATION_TYPE":"U","NORAD_CAT_ID":67202,"ELEMENT_SET_NO":999,"REV_AT_EPOCH":1382,"BSTAR":0.0019146601,"MEAN_MOTION_DOT":0.00022821,"MEAN_MOTION_DDOT":0}]
